NORAD_CAT_ID,OBJECT_NAME,OBJECT_TYPE,EPOCH,MEAN_MOTION,ECCENTRICITY,INCLINATION,RA_OF_ASC_NODE,ARG_OF_PERICENTER,MEAN_ANOMALY,BSTAR,MEAN_MOTION_DOT,MEAN_MOTION_DDOT,TLE_LINE0,TLE_LINE1,TLE_LINE2,SEMIMAJOR_AXIS,PERIOD,APOGEE,PERIGEE,DECAYED
51738.0,STARLINK-3515,PAYLOAD,2022-12-02 20:27:29,15.08840776,0.0003493,53.2153,273.9844,34.0288,326.0928,6.4989e-06,-1.85e-06,0.0,0 STARLINK-3515,1 51738U 22016AA  22336.85242535 -.00000185  00000-0  64989-5 0  9991,2 51738  53.2153 273.9844 0003493  34.0288 326.0928 15.08840776 44594,6917.878000000002,95.438,542.159,537.327,0.0
51738.0,STARLINK-3515,PAYLOAD,2022-12-03 05:59:49,15.0882414,0.0003498999999999,53.2174,272.202,37.3974,322.7261,-0.0001498,-2.671e-05,0.0,0 STARLINK-3515,1 51738U 22016AA  22337.24988197 -.00002671  00000-0 -14980-3 0  9993,2 51738  53.2174 272.2020 0003499  37.3974 322.7261 15.08824140 44656,6917.929,95.439,542.214,537.373,0.0
51738.0,STARLINK-3515,PAYLOAD,2022-12-03 12:21:22,15.08829341,0.0003409,53.2172,271.0127,36.081,324.0412,-0.00012678,-2.306e-05,0.0,0 STARLINK-3515,1 51738U 22016AA  22337.51483933 -.00002306  00000-0 -12678-3 0  9998,2 51738  53.2172 271.0127 0003409  36.0810 324.0412 15.08829341 44690,6917.913000000001,95.438,542.136,537.42,0.0
51738.0,STARLINK-3515,PAYLOAD,2022-12-03 20:18:14,15.08866928,0.0003478999999999,53.2173,269.5257,34.1942,325.9273,0.00022641,3.319e-05,0.0,0 STARLINK-3515,1 51738U 22016AA  22337.84600428  .00003319  00000-0  22641-3 0  9998,2 51738  53.2173 269.5257 0003479  34.1942 325.9273 15.08866928 44742,6917.7980000000025,95.436,542.07,537.256,0.0
51738.0,STARLINK-3515,PAYLOAD,2022-12-04 02:39:47,15.08860383,0.0003369,53.2172,268.3365,36.4209,323.7012,0.0001528,2.145e-05,0.0,0 STARLINK-3515,1 51738U 22016AA  22338.11096581  .00002145  00000-0  15280-3 0  9995,2 51738  53.2172 268.3365 0003369  36.4209 323.7012 15.08860383 44787,6917.818,95.436,542.014,537.352,0.0
51738.0,STARLINK-3515,PAYLOAD,2022-12-04 09:01:21,15.08840736,0.0003445,53.2172,267.1469,33.2389,326.8819,-1.606e-05,-5.45e-06,0.0,0 STARLINK-3515,1 51738U 22016AA  22338.37594245 -.00000545  00000-0 -16060-4 0  9995,2 51738  53.2172 267.1469 0003445  33.2389 326.8819 15.08840736 44822,6917.878000000002,95.438,542.126,537.36,0.0
51738.0,STARLINK-3515,PAYLOAD,2022-12-04 12:12:07,15.08840975,0.000343,53.2171,266.5521,33.3901,326.7307,1.8231e-05,1e-08,0.0,0 STARLINK-3515,1 51738U 22016AA  22338.50842087  .00000001  00000-0  18231-4 0  9997,2 51738  53.2171 266.5521 0003430  33.3901 326.7307 15.08840975 43733,6917.877,95.437,542.115,537.37,0.0
51738.0,STARLINK-3515,PAYLOAD,2022-12-04 18:33:40,15.08831541,0.0003427,53.2172,265.3628,34.0487,326.0724,3.8097e-05,3.17e-06,0.0,0 STARLINK-3515,1 51738U 22016AA  22338.77338643  .00000317  00000-0  38097-4 0  9996,2 51738  53.2172 265.3628 0003427  34.0487 326.0724 15.08831541 44884,6917.906,95.438,542.1419999999998,537.4,0.0
51738.0,STARLINK-3515,PAYLOAD,2022-12-04 20:09:04,15.08828126,0.0003411,53.2171,265.0654,34.0323,326.0887,9.2049e-06,-1.42e-06,0.0,0 STARLINK-3515,1 51738U 22016AA  22338.83963028 -.00000142  00000-0  92049-5 0  9999,2 51738  53.2171 265.0654 0003411  34.0323 326.0887 15.08828126 43784,6917.917,95.438,542.141,537.422,0.0
51738.0,STARLINK-3515,PAYLOAD,2022-12-05 04:05:59,15.08834617,0.0003352,53.2171,263.5785,35.157,324.9643,6.5237e-05,7.4999999999999985e-06,0.0,0 STARLINK-3515,1 51738U 22016AA  22339.17082579  .00000750  00000-0  65237-4 0  9992,2 51738  53.2171 263.5785 0003352  35.1570 324.9643 15.08834617 44940,6917.897,95.438,542.081,537.443,0.0
51738.0,STARLINK-3515,PAYLOAD,2022-12-05 12:02:54,15.0883969,0.000342,53.2171,262.0918,33.5775,326.5433,0.00022507,3.295e-05,0.0,0 STARLINK-3515,1 51738U 22016AA  22339.50201952  .00003295  00000-0  22507-3 0  9996,2 51738  53.2171 262.0918 0003420  33.5775 326.5433 15.08839690 44993,6917.880999999999,95.438,542.112,537.38,0.0
51738.0,STARLINK-3515,PAYLOAD,2022-12-05 19:59:50,15.08848593,0.0003528,53.2171,260.6048,34.42,325.702,-4.633e-06,-3.63e-06,0.0,0 STARLINK-3515,1 51738U 22016AA  22339.83322091 -.00000363  00000-0 -46330-5 0  9997,2 51738  53.2171 260.6048 0003528  34.4200 325.7020 15.08848593 45045,6917.854,95.437,542.16,537.279,0.0
51738.0,STARLINK-3515,PAYLOAD,2022-12-06 05:32:08,15.08863045,0.0003513,53.2171,258.8206,34.2778,325.844,-3.1495e-05,-7.91e-06,0.0,0 STARLINK-3515,1 51738U 22016AA  22340.23064905 -.00000791  00000-0 -31495-4 0  9990,2 51738  53.2171 258.8206 0003513  34.2778 325.8440 15.08863045 45105,6917.81,95.436,542.105,537.245,0.0
51738.0,STARLINK-3515,PAYLOAD,2022-12-06 11:53:40,15.08850895,0.0003488,53.2165,257.6306,33.4105,326.7107,1.6647000000000002e-05,-2.4e-07,0.0,0 STARLINK-3515,1 51738U 22016AA  22340.49561177 -.00000024  00000-0  16647-4 0  9991,2 51738  53.2165 257.6306 0003488  33.4105 326.7107 15.08850895 44032,6917.847,95.437,542.125,537.299,0.0
51738.0,STARLINK-3515,PAYLOAD,2022-12-06 13:29:04,15.08844511,0.0003517,53.2165,257.3335,32.2556,327.8651,0.00014063,1.95e-05,0.0,0 STARLINK-3515,1 51738U 22016AA  22340.56185562  .00001950  00000-0  14063-3 0  9996,2 51738  53.2165 257.3335 0003517  32.2556 327.8651 15.08844511 45159,6917.8669999999975,95.437,542.165,537.299,0.0
51738.0,STARLINK-3515,PAYLOAD,2022-12-06 19:50:37,15.08823959,0.0003281,53.2164,256.1441,32.9165,327.2031,-0.00016181,-2.862e-05,0.0,0 STARLINK-3515,1 51738U 22016AA  22340.82682787 -.00002862  00000-0 -16181-3 0  9994,2 51738  53.2164 256.1441 0003281  32.9165 327.2031 15.08823959 44084,6917.929,95.439,542.064,537.525,0.0
51738.0,STARLINK-3515,PAYLOAD,2022-12-06 21:26:01,15.08821466,0.0003339,53.2165,255.8467,31.4626,328.6566,-0.00010781,-2.003e-05,0.0,0 STARLINK-3515,1 51738U 22016AA  22340.89306989 -.00002003  00000-0 -10781-3 0  9995,2 51738  53.2165 255.8467 0003339  31.4626 328.6566 15.08821466 45203,6917.937,95.439,542.112,537.492,0.0
51738.0,STARLINK-3515,PAYLOAD,2022-12-07 06:58:19,15.08831986,0.0003419,53.2162,254.0627,30.8122,329.307,9.7423e-06,-1.34e-06,0.0,0 STARLINK-3515,1 51738U 22016AA  22341.29050767 -.00000134  00000-0  97423-5 0  9992,2 51738  53.2162 254.0627 0003419  30.8122 329.3070 15.08831986 45264,6917.905,95.438,542.135,537.405,0.0
51738.0,STARLINK-3515,PAYLOAD,2022-12-07 11:44:29,15.08835399,0.0003385,53.2161,253.1705,31.2572,328.8621,0.00018243,2.616e-05,0.0,0 STARLINK-3515,1 51738U 22016AA  22341.48922788  .00002616  00000-0  18243-3 0  9991,2 51738  53.2161 253.1705 0003385  31.2572 328.8621 15.08835399 45297,6917.894,95.438,542.101,537.418,0.0
51738.0,STARLINK-3515,PAYLOAD,2022-12-07 19:41:25,15.08831554,0.0003348999999999,53.2159,251.6837,31.5847,328.5346,0.00038522,5.847e-05,0.0,0 STARLINK-3515,1 51738U 22016AA  22341.82043281  .00005847  00000-0  38522-3 0  9992,2 51738  53.2159 251.6837 0003349  31.5847 328.5346 15.08831554 44234,6917.906,95.438,542.0880000000002,537.4540000000002,0.0
51738.0,STARLINK-3515,PAYLOAD,2022-12-07 21:16:48,15.08827773,0.0003338,53.2159,251.3863,31.1961,328.9229,0.00031159,4.672e-05,0.0,0 STARLINK-3515,1 51738U 22016AA  22341.88667459  .00004672  00000-0  31159-3 0  9991,2 51738  53.2159 251.3863 0003338  31.1961 328.9229 15.08827773 45357,6917.918000000002,95.438,542.092,537.474,0.0
51738.0,STARLINK-3515,PAYLOAD,2022-12-08 03:38:21,15.08835888,0.0003381,53.216,250.197,31.1332,328.986,0.0006219,9.622e-05,0.0,0 STARLINK-3515,1 51738U 22016AA  22342.15163593  .00009622  00000-0  62190-3 0  9991,2 51738  53.2160 250.1970 0003381  31.1332 328.9860 15.08835888 45396,6917.893,95.438,542.097,537.419,0.0
51738.0,STARLINK-3515,PAYLOAD,2022-12-08 11:35:16,15.08849226,0.0003407,53.2159,248.7102,31.7018,328.4179,0.00095306,0.00014917,0.0,0 STARLINK-3515,1 51738U 22016AA  22342.48283465  .00014917  00000-0  95306-3 0  9996,2 51738  53.2159 248.7102 0003407  31.7018 328.4179 15.08849226 44332,6917.852,95.437,542.0740000000002,537.36,0.0
51738.0,STARLINK-3515,PAYLOAD,2022-12-08 19:32:12,15.08856578,0.0003432,53.2159,247.2234,32.3784,327.7418,0.0008618,0.00013461,0.0,0 STARLINK-3515,1 51738U 22016AA  22342.81403175  .00013461  00000-0  86180-3 0  9998,2 51738  53.2159 247.2234 0003432  32.3784 327.7418 15.08856578 44388,6917.83,95.437,542.069,537.321,0.0
51738.0,STARLINK-3515,PAYLOAD,2022-12-09 01:53:44,15.088439,0.0003401,53.2159,246.0343,28.7396,331.3783,0.00026554,3.941e-05,0.0,0 STARLINK-3515,1 51738U 22016AA  22343.07899246  .00003941  00000-0  26554-3 0  9996,2 51738  53.2159 246.0343 0003401  28.7396 331.3783 15.08843900 45539,6917.868,95.437,542.086,537.381,0.0
51738.0,STARLINK-3515,PAYLOAD,2022-12-09 08:15:17,15.08834036,0.000346,53.216,244.8448,28.9783,331.14,0.00010678,1.411e-05,0.0,0 STARLINK-3515,1 51738U 22016AA  22343.34395683  .00001411  00000-0  10678-3 0  9992,2 51738  53.2160 244.8448 0003460  28.9783 331.1400 15.08834036 45578,6917.899,95.438,542.1569999999998,537.37,0.0
51738.0,STARLINK-3515,PAYLOAD,2022-12-09 20:58:22,15.08848027,0.0003356,53.2159,242.466,29.16800000000001,330.9499,0.00028512,4.253e-05,0.0,0 STARLINK-3515,1 51738U 22016AA  22343.87387162  .00004253  00000-0  28512-3 0  9996,2 51738  53.2159 242.4660 0003356  29.1680 330.9499 15.08848027 45658,6917.856,95.437,542.0419999999998,537.399,0.0
51738.0,STARLINK-3515,PAYLOAD,2022-12-10 03:19:54,15.08855716,0.0003443,53.2159,241.2766,30.9945,329.1249,0.00041797,6.373e-05,0.0,0 STARLINK-3515,1 51738U 22016AA  22344.13882921  .00006373  00000-0  41797-3 0  9994,2 51738  53.2159 241.2766 0003443  30.9945 329.1249 15.08855716 45693,6917.831999999999,95.437,542.0790000000002,537.316,0.0
51738.0,STARLINK-3515,PAYLOAD,2022-12-11 03:10:42,15.08841538,0.0003476,53.2158,236.8162,31.5312,328.5888,9.4249e-05,1.212e-05,0.0,0 STARLINK-3515,1 51738U 22016AA  22345.13243337  .00001212  00000-0  94249-4 0  9995,2 51738  53.2158 236.8162 0003476  31.5312 328.5888 15.08841538 45849,6917.876,95.437,542.145,537.336,0.0
